ONEWEB-0558             
1 56059U 23043P   25364.79231355  .00000160  00000+0  35573-3 0  9994
2 56059  87.9221 277.5725 0001364  59.9768 300.1501 13.21826422135997
ONEWEB-0559             
1 56060U 23043Q   25364.78078244  .00000043  00000+0  73601-4 0  9996
2 56060  87.9224 277.5688 0001661  66.2049 293.9259 13.21826399136008
ONEWEB-0566             
1 56061U 23043R   25364.77420001  .00000109  00000+0  23265-3 0  9991
2 56061  87.9225 277.5681 0001555  62.2082 297.9210 13.21827258135980
ONEWEB-0568             
1 56062U 23043S   25365.13364847 -.00000095  00000+0 -28214-3 0  9993
2 56062  87.9047 262.2322 0001490  85.5313 274.5988 13.16593231136865
ONEWEB-0574             
1 56063U 23043T   25364.76761777  .00000113  00000+0  24253-3 0  9993
2 56063  87.9225 277.5567 0001829  77.0964 283.0374 13.21828166136024
ONEWEB-0575             
1 56064U 23043U   25365.12731427 -.00000031  00000+0 -11494-3 0  9998
2 56064  87.9043 262.2327 0001870  83.7789 276.3555 13.16593209136851
ONEWEB-0576             
1 56065U 23043V   25365.10832284  .00000026  00000+0  34214-4 0  9998
2 56065  87.9047 262.2378 0001729  80.1546 279.9780 13.16593667136843
ONEWEB-0577             
1 56066U 23043W   25365.11465029  .00000080  00000+0  17498-3 0  9993
2 56066  87.9048 262.2359 0002286  83.5039 276.6352 13.16593605136871
